{"fetched_at":"2026-07-15T06:36:22.544Z","source":"https://celestrak.org/NORAD/elements/gp.php?NAME=RCM&FORMAT=JSON","constellation":"rcm","records":[{"OBJECT_NAME":"RCM-1","OBJECT_ID":"2019-033A","EPOCH":"2026-07-14T23:18:45.722592","CLASSIFICATION_TYPE":"U","MEAN_MOTION":14.92586262,"ECCENTRICITY":0.000152,"INCLINATION":97.7603,"RA_OF_ASC_NODE":203.0256,"ARG_OF_PERICENTER":92.6853,"MEAN_ANOMALY":350.7563,"EPHEMERIS_TYPE":0,"NORAD_CAT_ID":44322,"ELEMENT_SET_NO":999,"REV_AT_EPOCH":38622,"BSTAR":0.000051764335,"MEAN_MOTION_DOT":0.00000477,"MEAN_MOTION_DDOT":0},{"OBJECT_NAME":"RCM-3","OBJECT_ID":"2019-033B","EPOCH":"2026-07-14T23:28:58.720224","CLASSIFICATION_TYPE":"U","MEAN_MOTION":14.92586279,"ECCENTRICITY":0.0001504,"INCLINATION":97.7602,"RA_OF_ASC_NODE":203.127,"ARG_OF_PERICENTER":91.1429,"MEAN_ANOMALY":268.9963,"EPHEMERIS_TYPE":0,"NORAD_CAT_ID":44323,"ELEMENT_SET_NO":999,"REV_AT_EPOCH":38624,"BSTAR":0.000010272894,"MEAN_MOTION_DOT":5e-7,"MEAN_MOTION_DDOT":0},{"OBJECT_NAME":"RCM-2","OBJECT_ID":"2019-033C","EPOCH":"2026-07-14T22:24:25.143840","CLASSIFICATION_TYPE":"U","MEAN_MOTION":14.92587082,"ECCENTRICITY":0.00015241,"INCLINATION":97.7603,"RA_OF_ASC_NODE":203.0331,"ARG_OF_PERICENTER":90.8344,"MEAN_ANOMALY":269.305,"EPHEMERIS_TYPE":0,"NORAD_CAT_ID":44324,"ELEMENT_SET_NO":999,"REV_AT_EPOCH":38622,"BSTAR":0.000019489725,"MEAN_MOTION_DOT":0.00000145,"MEAN_MOTION_DDOT":0}]}
